AMC-1 (GE-1)            
1 24315U 96054A   22258.52670729  .00000056  00000+0  00000+0 0  9995
2 24315   5.8285  72.3753 0003129 106.7228 234.0914  1.00273523 32576
AMC-3 (GE-3)            
1 24936U 97050A   22258.49898272 -.00000269  00000+0  00000+0 0  9999
2 24936   4.7607  78.6272 0002845 101.9099 281.5391  1.00271182 38697
ASTRA 1G                
1 25071U 97076A   22258.19540494  .00000106  00000+0  00000+0 0  9994
2 25071   6.4461  67.5885 0003623 108.2044 268.0930  1.00271264 90763
ASTRA 2A                
1 25462U 98050A   22258.49000477  .00000060  00000+0  00000+0 0  9995
2 25462   3.6242  84.5960 0002982 110.0603  33.3777  1.00274200 32597
AMC-4 (GE-4)            
1 25954U 99060A   22258.52130345  .00000079  00000+0  00000+0 0  9995
2 25954   1.7418  90.8056 0003226  99.0588 217.3611  1.00272624 29802
NSS-11 (AAP-1)          
1 26554U 00059A   22258.45875542  .00000016  00000+0  00000+0 0  9990
2 26554   0.0426 333.7955 0002341 203.6175 158.1209  1.00272666 27549
AMC-6 (GE-6)            
1 26580U 00067A   22258.51644028  .00000096  00000+0  00000+0 0  9996
2 26580   0.0414 321.4302 0002963 224.7492 215.1842  1.00272458 80164
ASTRA 2D                
1 26638U 00081A   22258.12451108  .00000120  00000+0  00000+0 0  9996
2 26638   7.4789  59.6825 0001752 128.7122 234.2250  1.00268188 39166
AMC-8 (GE-8)            
1 26639U 00081B   22258.52130289  .00000079  00000+0  00000+0 0  9998
2 26639   2.6677  87.6027 0002640  37.8534 281.6840  1.00271455 79581
ASTRA 2C                
1 26853U 01025A   22258.47174941 -.00000267  00000+0  00000+0 0  9992
2 26853   4.7848  78.4330 0002927 106.7973 266.5483  1.00272644 31302
ASTRA 3A                
1 27400U 02015B   22258.49085437 -.00000212  00000+0  00000+0 0  9994
2 27400   7.5796  58.5645 0001842 137.7348 248.0538  1.00274572 74986
NSS-7                   
1 27414U 02019A   22258.34215925 -.00000166  00000+0  00000+0 0  9992
2 27414   6.1046  70.5561 0002233 112.9082 274.0159  1.00271788 74827
NSS-6                   
1 27603U 02057A   22258.53782705  .00000099  00000+0  00000+0 0  9994
2 27603   1.8332  90.5985 0003407  89.5684 198.4229  1.00269531 72299
AMC-11 (GE-11)          
1 28252U 04017A   22258.52660134  .00000061  00000+0  00000+0 0  9992
2 28252   0.0445 337.2541 0002707 202.7002 233.0796  1.00272081 67136
AMC-15                  
1 28446U 04041A   22258.52341097 -.00000097  00000+0  00000+0 0  9998
2 28446   0.0464 336.3278 0002763 194.1544 267.3548  1.00272002 65570
NSS-10 (AMC-12)         
1 28526U 05003A   22258.47108229 -.00000259  00000+0  00000+0 0  9998
2 28526   3.0046  86.3703 0002893  86.4013 313.7818  1.00272317 39410
ASTRA 1KR               
1 29055U 06012A   22258.26717045  .00000111  00000+0  00000+0 0  9992
2 29055   0.0499 272.8931 0004460 287.2366 269.4477  1.00271949 31988
AMC-18                  
1 29644U 06054B   22258.51229907 -.00000224  00000+0  00000+0 0  9991
2 29644   0.0395 315.3321 0002707 228.8182 271.7375  1.00272211 57795
ASTRA 1L                
1 31306U 07016A   22258.26717045  .00000111  00000+0  00000+0 0  9999
2 31306   0.0631 314.1275 0002831 272.9821 242.4502  1.00272081 31265
ASTRA 4A (SIRIUS 4)     
1 32299U 07057A   22258.32618631  .00000024  00000+0  00000+0 0  9997
2 32299   0.0417 328.7076 0002898 213.1565 294.6404  1.00273331 37922
AMC-21                  
1 33275U 08038B   22258.55085671  .00000028  00000+0  00000+0 0  9993
2 33275   0.0432 335.5577 0002472 208.3046 244.0319  1.00271751 51748
ASTRA 1M                
1 33436U 08057A   22258.26708326  .00000111  00000+0  00000+0 0  9993
2 33436   0.0197 122.2086 0005153  41.4501 305.8666  1.00272421 31982
CIEL-2                  
1 33453U 08063A   22258.52998358  .00000050  00000+0  00000+0 0  9996
2 33453   0.0119 193.7518 0003007 340.9641 241.6940  1.00272283 50389
NSS-9                   
1 33749U 09008A   22258.52803126  .00000063  00000+0  00000+0 0  9996
2 33749   0.0454 336.4862 0002214 194.3651 196.7863  1.00270782 49786
SES-7 (PROTOSTAR 2)     
1 34941U 09027A   22258.56128811 -.00000354  00000+0  00000+0 0  9991
2 34941   0.0315  89.9633 0001818 136.6612  78.1996  1.00273300 48876
NSS-12                  
1 36032U 09058A   22258.48991757  .00000062  00000+0  00000+0 0  9991
2 36032   0.0301 298.9948 0002719 245.5081  43.3007  1.00273606 47174
SES-1                   
1 36516U 10016A   22258.56373882 -.00000123  00000+0  00000+0 0  9995
2 36516   0.0505 295.2120 0002456 249.3515 271.8934  1.00272689 45301
ASTRA 3B                
1 36581U 10021A   22258.26795525  .00000128  00000+0  00000+0 0  9996
2 36581   0.0788  66.1283 0003480 115.8571 292.1956  1.00273873 45135
SES-3                   
1 37748U 11035A   22258.52341097 -.00000110  00000+0  00000+0 0  9990
2 37748   0.0467 319.9122 0002819 210.6521 269.3346  1.00272352 40843
ASTRA 1N                
1 37775U 11041A   22258.26717045  .00000111  00000+0  00000+0 0  9998
2 37775   0.0524  10.6165 0001967 110.0659 348.8925  1.00271934 30780
SES-2                   
1 37809U 11049A   22258.51785365 -.00000204  00000+0  00000+0 0  9996
2 37809   0.0366 312.9281 0002891 223.3217 277.6346  1.00272337 40217
QUETZSAT 1              
1 37826U 11054A   22258.51229907 -.00000250  00000+0  00000+0 0  9997
2 37826   0.0426 329.4337 0002806 204.8706 287.5797  1.00272215 36154
SES-4                   
1 38087U 12007A   22258.36230130 -.00000177  00000+0  00000+0 0  9997
2 38087   0.0123 112.6430 0002300  56.6085 293.4904  1.00271032 38497
SES-5                   
1 38652U 12036A   22258.32618631  .00000025  00000+0  00000+0 0  9990
2 38652   0.0625 296.4147 0001984 241.3333 298.9243  1.00270707 30748
ASTRA 2F                
1 38778U 12051A   22258.48407515  .00000141  00000+0  00000+0 0  9999
2 38778   0.0790 248.1356 0004124 317.4958 351.2218  1.00271244 27381
SES-6                   
1 39172U 13026A   22258.47047191 -.00000270  00000+0  00000+0 0  9994
2 39172   0.0569 297.7643 0002374 249.8150 295.6945  1.00271038 33982
O3B FM5                 
1 39188U 13031A   22258.42794206 -.00000028  00000+0  00000+0 0  9999
2 39188   0.0610  18.5923 0002598 159.3009 182.1092  5.00115335168468
O3B FM4                 
1 39189U 13031B   22258.28408032 -.00000028  00000+0  00000+0 0  9993
2 39189   0.0534 351.4737 0002556 186.0091 182.5197  5.00115858168479
O3B FM2                 
1 39190U 13031C   22258.37549675 -.00000028  00000+0  00000+0 0  9994
2 39190   0.0545 346.2081 0002583 190.1805 183.6145  5.00116869168520
O3B PFM                 
1 39191U 13031D   22258.20190210 -.00000028  00000+0  00000+0 0  9994
2 39191   0.0558  11.3752 0002642 163.5163 185.1124  5.00115699168082
ASTRA 2E                
1 39285U 13056A   22258.48416236  .00000141  00000+0  00000+0 0  9999
2 39285   0.0835 319.9410 0002827 222.0022  15.2528  1.00271161 32693
SES-8                   
1 39460U 13071A   22258.55424713 -.00000279  00000+0  00000+0 0  9991
2 39460   0.0353 247.3722 0002001 266.7751 134.8880  1.00272044 30688
ASTRA 5B                
1 39617U 14011B   22258.48477275  .00000146  00000+0  00000+0 0  9995
2 39617   0.0467  29.7022 0004038 152.9264  17.8247  1.00275346 30922
O3B FM3                 
1 40079U 14038A   22255.65809308 -.00000028  00000+0  00000+0 0  9990
2 40079   0.0548 359.6357 0004939 160.8687 199.5145  5.00115348149418
O3B FM7                 
1 40080U 14038B   22257.80296098 -.00000028  00000+0  00000+0 0  9997
2 40080   0.0577 356.2023 0001574 222.9370 140.8504  5.00115501149279
O3B FM6                 
1 40081U 14038C   22258.22911948 -.00000028  00000+0  00000+0 0  9993
2 40081   0.0539 358.8398 0002691 176.3623 184.8016  5.00115376149237
O3B FM8                 
1 40082U 14038D   22258.28304758 -.00000028  00000+0  00000+0 0  9995
2 40082   0.0525 355.8256 0002645 176.4850 187.6946  5.00115672149361
O3B FM10                
1 40348U 14083A   22258.30910174 -.00000028  00000+0  00000+0 0  9998
2 40348   0.0515   8.3097 0002626 166.1596 185.5349  5.00115153141315
O3B FM11                
1 40349U 14083B   22256.12376100 -.00000028  00000+0  00000+0 0  9992
2 40349   0.0561   8.0920 0002451 179.8185 172.0859  5.00115389141228
O3B FM12                
1 40350U 14083C   22258.34976547 -.00000028  00000+0  00000+0 0  9991
2 40350   0.0556   7.2744 0002741 171.0138 181.7140  5.00115276141341
O3B FM9                 
1 40351U 14083D   22258.37666202 -.00000028  00000+0  00000+0 0  9999
2 40351   0.0573   8.2754 0002587 168.5011 183.2264  5.00116210141491
ASTRA 2G                
1 40364U 14089A   22258.48416236  .00000141  00000+0  00000+0 0  9996
2 40364   0.0147 331.1571 0001922 137.3584  88.4212  1.00275379 28220
SES-9                   
1 41380U 16013A   22258.56128811 -.00000354  00000+0  00000+0 0  9999
2 41380   0.0427 286.0147 0001560 209.0201 169.8400  1.00272360 23694
SES-10                  
1 42432U 17017A   22258.37580778 -.00000281  00000+0  00000+0 0  9995
2 42432   0.0181 136.1445 0002824  47.7118 238.8360  1.00267166 19992
SES-15                  
1 42709U 17026A   22258.54333312  .00000052  00000+0  00000+0 0  9996
2 42709   0.0089   6.5117 0000386 199.0154 215.4027  1.00269011 20392
SES-11 (ECHOSTAR 105)   
1 42967U 17063A   22258.52341097 -.00000098  00000+0  00000+0 0  9991
2 42967   0.0471 283.2987 0002948 262.9121 251.7204  1.00271993 17974
SES-14                  
1 43175U 18012B   22258.08313115 -.00000288  00000+0  00000+0 0  9990
2 43175   0.0357 302.1888 0001289 242.3337 151.9274  1.00270306 17300
O3B FM15                
1 43231U 18024A   22257.84292755 -.00000028  00000+0  00000+0 0  9997
2 43231   0.0481   9.1011 0002914 167.6600 183.2418  5.00116016 82425
O3B FM16                
1 43232U 18024B   22258.29609654 -.00000028  00000+0  00000+0 0  9998
2 43232   0.0444  11.3706 0002893 166.3124 182.3196  5.00115897 82366
O3B FM14                
1 43233U 18024C   22258.33573067 -.00000028  00000+0  00000+0 0  9992
2 43233   0.0428  11.4566 0002731 168.3013 180.2434  5.00115338 82377
O3B FM13                
1 43234U 18024D   22258.38924083 -.00000028  00000+0  00000+0 0  9996
2 43234   0.0571  30.9727 0003678 152.9948 176.0309  5.00115055 82481
SES-12                  
1 43488U 18049A   22258.55424714 -.00000279  00000+0  00000+0 0  9997
2 43488   0.0290  76.2710 0001920 163.6461  49.1052  1.00272503 15672
O3B FM20                
1 44112U 19020A   22258.36244210 -.00000028  00000+0  00000+0 0  9994
2 44112   0.0512   7.6132 0003042 176.3900 175.9956  5.00115468 62994
O3B FM19                
1 44113U 19020B   22258.38924102 -.00000028  00000+0  00000+0 0  9992
2 44113   0.0690  22.4708 0001524 171.5856 165.9406  5.00115129 62854
O3B FM17                
1 44114U 19020C   22258.26986126 -.00000028  00000+0  00000+0 0  9994
2 44114   0.0376 348.8924 0003036 188.8170 182.2932  5.00115583 62941
O3B FM18                
1 44115U 19020D   22258.41627152 -.00000028  00000+0  00000+0 0  9993
2 44115   0.0515   7.8948 0002871 166.7888 185.3206  5.00115771 63074
SES-17                  
1 49332U 21095A   22257.74766247 -.00000282  00000+0  00000+0 0  9990
2 49332   0.0136 127.0263 0001117  53.8060  14.9231  1.00269914  4091
SES-22                  
1 52933U 22071A   22258.52151477  .00000080  00000+0  00000+0 0  9991
2 52933   0.0466 272.6761 0002665 292.9197 201.6086  1.00271535   804
